NORAD_CAT_ID,OBJECT_NAME,OBJECT_TYPE,EPOCH,MEAN_MOTION,ECCENTRICITY,INCLINATION,RA_OF_ASC_NODE,ARG_OF_PERICENTER,MEAN_ANOMALY,BSTAR,MEAN_MOTION_DOT,MEAN_MOTION_DDOT,TLE_LINE0,TLE_LINE1,TLE_LINE2,SEMIMAJOR_AXIS,PERIOD,APOGEE,PERIGEE,DECAYED
53571.0,STARLINK-4584,PAYLOAD,2024-01-03 08:04:33,15.08858845,0.0001726,53.2187,29.0415,85.0934,275.0255,0.00014188,1.972e-05,0.0,0 STARLINK-4584,1 53571U 22101AW  24003.33650296  .00001972  00000-0  14188-3 0  9994,2 53571  53.2187  29.0415 0001726  85.0934 275.0255 15.08858845 76220,6917.823,95.436,540.882,538.494,0.0
53571.0,STARLINK-4584,PAYLOAD,2024-01-04 04:44:36,15.08837917,0.0001336,53.2178,25.1733,90.4893,269.6252,-2.3643e-05,-6.64e-06,0.0,0 STARLINK-4584,1 53571U 22101AW  24004.19763920 -.00000664  00000-0 -23643-4 0  9994,2 53571  53.2178  25.1733 0001336  90.4893 269.6252 15.08837917 76358,6917.887,95.438,540.676,538.828,0.0
53571.0,STARLINK-4584,PAYLOAD,2024-01-04 06:19:59,15.08836172,0.0001319,53.2167,24.875,101.0618,259.0523,-2.0985e-05,-6.22e-06,0.0,0 STARLINK-4584,1 53571U 22101AW  24004.26387971 -.00000622  00000-0 -20985-4 0  9990,2 53571  53.2167  24.8750 0001319 101.0618 259.0523 15.08836172 77050,6917.892,95.438,540.67,538.845,0.0
53571.0,STARLINK-4584,PAYLOAD,2024-01-05 07:46:09,15.08844636,0.0001603,53.2179,20.1207,112.6549,247.4613,-8.3176e-05,-1.612e-05,0.0,0 STARLINK-4584,1 53571U 22101AW  24005.32371873 -.00001612  00000-0 -83176-4 0  9993,2 53571  53.2179  20.1207 0001603 112.6549 247.4613 15.08844636 76522,6917.866,95.437,540.84,538.622,0.0
53571.0,STARLINK-4584,PAYLOAD,2024-01-06 04:26:10,15.08834781,0.000156,53.2172,16.2534,100.4328,259.684,0.0002272,3.329e-05,0.0,0 STARLINK-4584,1 53571U 22101AW  24006.18484635  .00003329  00000-0  22720-3 0  9991,2 53571  53.2172  16.2534 0001560 100.4328 259.6840 15.08834781 76657,6917.896,95.438,540.841,538.682,0.0
53571.0,STARLINK-4584,PAYLOAD,2024-01-06 10:47:43,15.08840947,0.0001608,53.2172,15.0638,102.0193,258.098,0.00029651,4.434e-05,0.0,0 STARLINK-4584,1 53571U 22101AW  24006.44980481  .00004434  00000-0  29651-3 0  9998,2 53571  53.2172  15.0638 0001608 102.0193 258.0980 15.08840947 77380,6917.877,95.437,540.855,538.63,0.0
53571.0,STARLINK-4584,PAYLOAD,2024-01-07 05:52:20,15.08839619,0.0001604,53.2166,11.4946,97.2624,262.855,0.00012059,1.632e-05,0.0,0 STARLINK-4584,1 53571U 22101AW  24007.24468717  .00001632  00000-0  12059-3 0  9991,2 53571  53.2166  11.4946 0001604  97.2624 262.8550 15.08839619 76812,6917.882,95.438,540.856,538.637,0.0
53571.0,STARLINK-4584,PAYLOAD,2024-01-08 08:53:54,15.08843869,0.000161,53.2167,6.4392,97.7601,262.3574,8.8446e-05,1.12e-05,0.0,0 STARLINK-4584,1 53571U 22101AW  24008.37076548  .00001120  00000-0  88446-4 0  9999,2 53571  53.2167   6.4392 0001610  97.7601 262.3574 15.08843869 76980,6917.869,95.437,540.847,538.62,0.0
53571.0,STARLINK-4584,PAYLOAD,2024-01-09 07:09:18,15.08844213,0.0001697,53.2179,2.2743,83.8227,276.2959,0.00014503,2.021e-05,0.0,0 STARLINK-4584,1 53571U 22101AW  24009.29812710  .00002021  00000-0  14503-3 0  9993,2 53571  53.2179   2.2743 0001697  83.8227 276.2959 15.08844213 77810,6917.868,95.437,540.906,538.559,0.0
53571.0,STARLINK-4584,PAYLOAD,2024-01-10 03:49:19,15.08837024,0.0001729,53.2179,358.414,91.1432,268.9759,0.00036887,5.587e-05,0.0,0 STARLINK-4584,1 53571U 22101AW  24010.15925000  .00005587  00000-0  36887-3 0  9996,2 53571  53.2179 358.4140 0001729  91.1432 268.9759 15.08837024 77259,6917.889,95.438,540.951,538.558,0.0
53571.0,STARLINK-4584,PAYLOAD,2024-01-10 08:35:27,15.08854145,0.0001694,53.2174,357.5196,87.3609,272.7577,0.0002211,3.234e-05,0.0,0 STARLINK-4584,1 53571U 22101AW  24010.35796098  .00003234  00000-0  22110-3 0  9992,2 53571  53.2174 357.5196 0001694  87.3609 272.7577 15.08854145 77286,6917.837,95.437,540.874,538.53,0.0
53571.0,STARLINK-4584,PAYLOAD,2024-01-11 03:40:05,15.08845298,0.0001949,53.2185,353.9434,112.7578,247.3621,4.0758e-05,3.61e-06,0.0,0 STARLINK-4584,1 53571U 22101AW  24011.15284358  .00000361  00000-0  40758-4 0  9999,2 53571  53.2185 353.9434 0001949 112.7578 247.3621 15.08845298 77405,6917.864,95.437,541.077,538.381,0.0
53571.0,STARLINK-4584,PAYLOAD,2024-01-11 08:26:15,15.08847228,0.0001704,53.2181,353.0534,102.7218,257.3965,8.9093e-05,1.13e-05,0.0,0 STARLINK-4584,1 53571U 22101AW  24011.35156311  .00001130  00000-0  89093-4 0  9998,2 53571  53.2181 353.0534 0001704 102.7218 257.3965 15.08847228 78129,6917.858,95.437,540.902,538.544,0.0
53571.0,STARLINK-4584,PAYLOAD,2024-01-12 08:17:02,15.08842473,0.0001804,53.2189,348.5935,106.3794,253.7396,-1.3144e-05,-4.97e-06,0.0,0 STARLINK-4584,1 53571U 22101AW  24012.34516489 -.00000497  00000-0 -13144-4 0  9995,2 53571  53.2189 348.5935 0001804 106.3794 253.7396 15.08842473 77585,6917.873,95.437,540.986,538.49,0.0
53571.0,STARLINK-4584,PAYLOAD,2024-01-13 03:21:40,15.08837138,0.0001614,53.2179,345.0253,104.4408,255.6763,1.2411e-05,-9.1e-07,0.0,0 STARLINK-4584,1 53571U 22101AW  24013.14005047 -.00000091  00000-0  12411-4 0  9992,2 53571  53.2179 345.0253 0001614 104.4408 255.6763 15.08837138 77704,6917.889,95.438,540.871,538.638,0.0
53571.0,STARLINK-4584,PAYLOAD,2024-01-14 03:12:27,15.08839714,0.0001614,53.2174,340.5684,103.9316,256.1856,4.2129e-05,3.83e-06,0.0,0 STARLINK-4584,1 53571U 22101AW  24014.13365294  .00000383  00000-0  42129-4 0  9997,2 53571  53.2174 340.5684 0001614 103.9316 256.1856 15.08839714 78543,6917.881,95.438,540.863,538.63,0.0
53571.0,STARLINK-4584,PAYLOAD,2024-01-14 22:17:05,15.08840072,0.0001401,53.2171,337.0008,87.0094,273.1059,0.00016779,2.383e-05,0.0,0 STARLINK-4584,1 53571U 22101AW  24014.92853516  .00002383  00000-0  16779-3 0  9996,2 53571  53.2171 337.0008 0001401  87.0094 273.1059 15.08840072 78666,6917.88,95.438,540.714,538.776,0.0
53571.0,STARLINK-4584,PAYLOAD,2024-01-15 03:03:14,15.08849766,0.0001563,53.2181,336.1093,97.1458,262.9712,0.00014074,1.953e-05,0.0,0 STARLINK-4584,1 53571U 22101AW  24015.12725000  .00001953  00000-0  14074-3 0  9993,2 53571  53.2181 336.1093 0001563  97.1458 262.9712 15.08849766 78005,6917.851,95.437,540.797,538.634,0.0
53571.0,STARLINK-4584,PAYLOAD,2024-01-15 06:14:01,15.08842503,0.0001567,53.2166,335.5136,80.3653,279.7516,0.00078222,0.00012184,0.0,0 STARLINK-4584,1 53571U 22101AW  24015.25973659  .00012184  00000-0  78222-3 0  9995,2 53571  53.2166 335.5136 0001567  80.3653 279.7516 15.08842503 78026,6917.873,95.437,540.822,538.654,0.0
53571.0,STARLINK-4584,PAYLOAD,2024-01-16 06:04:48,15.08841123,0.0002019,53.2177,331.0552,84.5438,275.5784,0.00014721,2.056e-05,0.0,0 STARLINK-4584,1 53571U 22101AW  24016.25333858  .00002056  00000-0  14721-3 0  9998,2 53571  53.2177 331.0552 0002019  84.5438 275.5784 15.08841123 78175,6917.877,95.437,541.139,538.345,0.0
53571.0,STARLINK-4584,PAYLOAD,2024-01-16 20:23:16,15.08841453,0.000167,53.2174,328.38,87.1938,272.9245,0.00014091,1.955e-05,0.0,0 STARLINK-4584,1 53571U 22101AW  24016.84949870  .00001955  00000-0  14091-3 0  9997,2 53571  53.2174 328.3800 0001670  87.1938 272.9245 15.08841453 78958,6917.876,95.437,540.896,538.586,0.0
53571.0,STARLINK-4584,PAYLOAD,2024-01-17 04:20:12,15.08848113,0.0001735,53.2172,326.8935,86.6343,273.4847,0.00037388,5.669e-05,0.0,0 STARLINK-4584,1 53571U 22101AW  24017.18069643  .00005669  00000-0  37388-3 0  9996,2 53571  53.2172 326.8935 0001735  86.6343 273.4847 15.08848113 79005,6917.856,95.437,540.921,538.52,0.0
53571.0,STARLINK-4584,PAYLOAD,2024-01-18 02:35:36,15.0884168,0.0001706,53.2181,322.7287,91.5053,268.6135,0.0002011,2.914e-05,0.0,0 STARLINK-4584,1 53571U 22101AW  24018.10806134  .00002914  00000-0  20110-3 0  9998,2 53571  53.2181 322.7287 0001706  91.5053 268.6135 15.08841680 78457,6917.875,95.437,540.92,538.56,0.0
53571.0,STARLINK-4584,PAYLOAD,2024-01-18 05:46:22,15.08845315,0.0001638,53.2175,322.1305,93.3099,266.8081,0.00032772,4.932e-05,0.0,0 STARLINK-4584,1 53571U 22101AW  24018.24053983  .00004932  00000-0  32772-3 0  9998,2 53571  53.2175 322.1305 0001638  93.3099 266.8081 15.08845315 79167,6917.864,95.437,540.862,538.596,0.0
53571.0,STARLINK-4584,PAYLOAD,2024-01-19 05:37:09,15.08849924,0.0001686,53.2171,317.6668,98.8971,261.2212,0.00036586,5.541e-05,0.0,0 STARLINK-4584,1 53571U 22101AW  24019.23413814  .00005541  00000-0  36586-3 0  9995,2 53571  53.2171 317.6668 0001686  98.8971 261.2212 15.08849924 78621,6917.85,95.437,540.881,538.549,0.0
53571.0,STARLINK-4584,PAYLOAD,2024-01-19 23:06:23,15.08845393,0.00017,53.2169,314.3943,106.9519,253.1659,0.00022823,3.347e-05,0.0,0 STARLINK-4584,1 53571U 22101AW  24019.96277712  .00003347  00000-0  22823-3 0  9991,2 53571  53.2169 314.3943 0001700 106.9519 253.1659 15.08845393 79424,6917.864,95.437,540.905,538.553,0.0
53571.0,STARLINK-4584,PAYLOAD,2024-01-20 00:41:46,15.08847389,0.0001569,53.2166,314.1016,105.4843,254.6322,0.00016486,2.337e-05,0.0,0 STARLINK-4584,1 53571U 22101AW  24020.02901608  .00002337  00000-0  16486-3 0  9994,2 53571  53.2166 314.1016 0001569 105.4843 254.6322 15.08847389 78741,6917.858,95.437,540.808,538.637,0.0
53571.0,STARLINK-4584,PAYLOAD,2024-01-20 19:46:24,15.0884033,0.0001408,53.2156,310.5386,85.719,274.3963,1.9377e-05,2e-07,0.0,0 STARLINK-4584,1 53571U 22101AW  24020.82390019  .00000020  00000-0  19377-4 0  9990,2 53571  53.2156 310.5386 0001408  85.7190 274.3963 15.08840330 78869,6917.879,95.438,540.718,538.77,0.0
53571.0,STARLINK-4584,PAYLOAD,2024-01-20 22:57:11,15.08841255,0.0001403,53.2157,309.9438,82.6748,277.4404,-3.3878e-05,-8.27e-06,0.0,0 STARLINK-4584,1 53571U 22101AW  24020.95637951 -.00000827  00000-0 -33878-4 0  9992,2 53571  53.2157 309.9438 0001403  82.6748 277.4404 15.08841255 79570,6917.877,95.437,540.712,538.771,0.0
53571.0,STARLINK-4584,PAYLOAD,2024-01-21 00:32:34,15.08843372,0.0001392,53.2158,309.6465,83.7615,276.3535,-4.2989e-05,-9.72e-06,0.0,0 STARLINK-4584,1 53571U 22101AW  24021.02261916 -.00000972  00000-0 -42989-4 0  9999,2 53571  53.2158 309.6465 0001392  83.7615 276.3535 15.08843372 79586,6917.87,95.437,540.698,538.772,0.0
